NORAD_CAT_ID,OBJECT_NAME,OBJECT_TYPE,EPOCH,MEAN_MOTION,ECCENTRICITY,INCLINATION,RA_OF_ASC_NODE,ARG_OF_PERICENTER,MEAN_ANOMALY,BSTAR,MEAN_MOTION_DOT,MEAN_MOTION_DDOT,TLE_LINE0,TLE_LINE1,TLE_LINE2,SEMIMAJOR_AXIS,PERIOD,APOGEE,PERIGEE,DECAYED
51880.0,STARLINK-3566,PAYLOAD,2024-07-18 15:51:16,15.08840338,0.0001263,53.2162,177.984,86.0602,274.0534,-4.1084e-05,-9.42e-06,0.0,0 STARLINK-3566,1 51880U 22022AE  24200.66060666 -.00000942  00000-0 -41084-4 0  9992,2 51880  53.2162 177.9840 0001263  86.0602 274.0534 15.08840338132688,6917.879,95.438,540.618,538.871,0.0
51880.0,STARLINK-3566,PAYLOAD,2024-07-19 04:34:20,15.08848961,0.000151,53.217,175.604,93.3037,266.8128,5.8505e-05,6.43e-06,0.0,0 STARLINK-3566,1 51880U 22022AE  24201.19051943  .00000643  00000-0  58505-4 0  9991,2 51880  53.2170 175.6040 0001510  93.3037 266.8128 15.08848961132769,6917.853,95.437,540.763,538.673,0.0
51880.0,STARLINK-3566,PAYLOAD,2024-07-19 07:45:06,15.08853758,0.000136,53.2162,175.0102,93.9562,266.1586,0.0001013,1.325e-05,0.0,0 STARLINK-3566,1 51880U 22022AE  24201.32299508  .00001325  00000-0  10130-3 0  9996,2 51880  53.2162 175.0102 0001360  93.9562 266.1586 15.08853758132788,6917.838,95.437,540.644,538.763,0.0
51880.0,STARLINK-3566,PAYLOAD,2024-07-19 15:42:03,15.08842542,0.0001444,53.2166,173.5195,97.0155,263.1001,-7.3682e-06,-4.05e-06,0.0,0 STARLINK-3566,1 51880U 22022AE  24201.65420227 -.00000405  00000-0 -73682-5 0  9999,2 51880  53.2166 173.5195 0001444  97.0155 263.1001 15.08842542132837,6917.873,95.437,540.737,538.739,0.0
51880.0,STARLINK-3566,PAYLOAD,2024-07-20 04:25:08,15.08838921,0.0001475,53.2158,171.1447,91.3905,268.7256,0.0001408,1.954e-05,0.0,0 STARLINK-3566,1 51880U 22022AE  24202.18412474  .00001954  00000-0  14080-3 0  9996,2 51880  53.2158 171.1447 0001475  91.3905 268.7256 15.08838921132914,6917.884,95.438,540.769,538.728,0.0
51880.0,STARLINK-3566,PAYLOAD,2024-07-21 02:40:32,15.088409,0.0001434,53.2165,166.9793,112.1879,247.9265,3.1358e-05,2.11e-06,0.0,0 STARLINK-3566,1 51880U 22022AE  24203.11148640  .00000211  00000-0  31358-4 0  9994,2 51880  53.2165 166.9793 0001434 112.1879 247.9265 15.08840900133050,6917.878,95.437,540.735,538.751,0.0
51880.0,STARLINK-3566,PAYLOAD,2024-07-21 07:26:42,15.08839557,0.0001492,53.2179,166.0918,78.929,281.187,-7.1505e-05,-1.426e-05,0.0,0 STARLINK-3566,1 51880U 22022AE  24203.31021207 -.00001426  00000-0 -71505-4 0  9994,2 51880  53.2179 166.0918 0001492  78.9290 281.1870 15.08839557133086,6917.882,95.438,540.779,538.715,0.0
51880.0,STARLINK-3566,PAYLOAD,2024-07-22 04:06:42,15.08845961,0.0001329,53.2165,162.2246,87.8683,272.2461,6.2292e-05,7.04e-06,0.0,0 STARLINK-3566,1 51880U 22022AE  24204.17132605  .00000704  00000-0  62292-4 0  9993,2 51880  53.2165 162.2246 0001329  87.8683 272.2461 15.08845961133215,6917.862,95.437,540.647,538.808,0.0
51880.0,STARLINK-3566,PAYLOAD,2024-07-22 21:35:57,15.08837549,0.000125,53.2175,158.9533,112.7539,247.3585,0.0001576,2.221e-05,0.0,0 STARLINK-3566,1 51880U 22022AE  24204.89996780  .00002221  00000-0  15760-3 0  9997,2 51880  53.2175 158.9533 0001250 112.7539 247.3585 15.08837549133323,6917.888,95.438,540.618,538.888,0.0
51880.0,STARLINK-3566,PAYLOAD,2024-07-23 13:29:48,15.08838051,0.0001136,53.2151,155.9799,97.3508,262.7613,0.0001306,1.791e-05,0.0,0 STARLINK-3566,1 51880U 22022AE  24205.56237098  .00001791  00000-0  13060-3 0  9994,2 51880  53.2151 155.9799 0001136  97.3508 262.7613 15.08838051133428,6917.886,95.438,540.537,538.965,0.0
51880.0,STARLINK-3566,PAYLOAD,2024-07-23 21:26:45,15.08833394,0.0001854,53.2185,154.4979,107.9156,252.2038,-1.3842e-05,-5.08e-06,0.0,0 STARLINK-3566,1 51880U 22022AE  24205.89358148 -.00000508  00000-0 -13842-4 0  9996,2 51880  53.2185 154.4979 0001854 107.9156 252.2038 15.08833394133478,6917.901,95.438,541.048,538.483,0.0
51880.0,STARLINK-3566,PAYLOAD,2024-07-24 02:12:54,15.08832737,0.0001769,53.2188,153.6083,115.4312,244.6864,-4.7829e-05,-1.049e-05,0.0,0 STARLINK-3566,1 51880U 22022AE  24206.09230270 -.00001049  00000-0 -47829-4 0  9997,2 51880  53.2188 153.6083 0001769 115.4312 244.6864 15.08832737133507,6917.903,95.438,540.991,538.544,0.0
51880.0,STARLINK-3566,PAYLOAD,2024-07-25 05:14:27,15.08828938,0.0001173,53.2155,148.544,85.5923,274.5203,-0.0001136,-2.095e-05,0.0,0 STARLINK-3566,1 51880U 22022AE  24207.21837609 -.00002095  00000-0 -11360-3 0  9993,2 51880  53.2155 148.5440 0001173  85.5923 274.5203 15.08828938133670,6917.914,95.438,540.591,538.968,0.0
51880.0,STARLINK-3566,PAYLOAD,2024-07-25 19:32:56,15.08827712,0.000145,53.2164,145.8719,81.393,278.7227,9.4484e-05,1.216e-05,0.0,0 STARLINK-3566,1 51880U 22022AE  24207.81453706  .00001216  00000-0  94484-4 0  9992,2 51880  53.2164 145.8719 0001450  81.3930 278.7227 15.08827712133760,6917.918,95.438,540.786,538.78,0.0
51880.0,STARLINK-3566,PAYLOAD,2024-07-26 05:05:14,15.08830848,0.0001424,53.2165,144.0849,83.693,276.4224,-5.7861e-05,-1.208e-05,0.0,0 STARLINK-3566,1 51880U 22022AE  24208.21197107 -.00001208  00000-0 -57861-4 0  9998,2 51880  53.2165 144.0849 0001424  83.6930 276.4224 15.08830848133825,6917.908,95.438,540.758,538.788,0.0
51880.0,STARLINK-3566,PAYLOAD,2024-07-26 13:02:09,15.08839502,0.000145,53.2171,142.5984,87.3135,272.8023,-0.00020313,-3.519e-05,0.0,0 STARLINK-3566,1 51880U 22022AE  24208.54316821 -.00003519  00000-0 -20313-3 0  9998,2 51880  53.2171 142.5984 0001450  87.3135 272.8023 15.08839502133870,6917.882,95.438,540.75,538.744,0.0
51880.0,STARLINK-3566,PAYLOAD,2024-07-27 22:25:16,15.08823059,0.0001196,53.2177,136.3539,95.9663,264.1466,1.7181e-05,-1.4e-07,0.0,0 STARLINK-3566,1 51880U 22022AE  24209.93421736 -.00000014  00000-0  17181-4 0  9990,2 51880  53.2177 136.3539 0001196  95.9663 264.1466 15.08823059134080,6917.932,95.439,540.625,538.97,0.0
51880.0,STARLINK-3566,PAYLOAD,2024-07-28 01:36:02,15.08846476,0.0001513,53.218,135.7601,85.6705,274.446,-0.00034197,-5.727e-05,0.0,0 STARLINK-3566,1 51880U 22022AE  24210.06669455 -.00005727  00000-0 -34197-3 0  9990,2 51880  53.2180 135.7601 0001513  85.6705 274.4460 15.08846476134102,6917.861,95.437,540.772,538.679,0.0
51880.0,STARLINK-3566,PAYLOAD,2024-07-28 12:43:44,15.0881575,0.0001678,53.2182,133.6792,104.0602,256.0577,0.00019292,2.782e-05,0.0,0 STARLINK-3566,1 51880U 22022AE  24210.53038132  .00002782  00000-0  19292-3 0  9999,2 51880  53.2182 133.6792 0001678 104.0602 256.0577 15.08815750134179,6917.955,95.439,540.98,538.659,0.0
51880.0,STARLINK-3566,PAYLOAD,2024-07-28 22:16:03,15.08829792,0.0001464,53.2175,131.8948,85.2914,274.8245,0.00014686,2.049e-05,0.0,0 STARLINK-3566,1 51880U 22022AE  24210.92781622  .00002049  00000-0  14686-3 0  9999,2 51880  53.2175 131.8948 0001464  85.2914 274.8245 15.08829792134231,6917.912,95.438,540.789,538.764,0.0
51880.0,STARLINK-3566,PAYLOAD,2024-07-29 01:26:49,15.08836515,0.0001577,53.2178,131.2991,93.6828,266.4345,0.00018762,2.699e-05,0.0,0 STARLINK-3566,1 51880U 22022AE  24211.06029210  .00002699  00000-0  18762-3 0  9993,2 51880  53.2178 131.2991 0001577  93.6828 266.4345 15.08836515134259,6917.891,95.438,540.847,538.665,0.0
51880.0,STARLINK-3566,PAYLOAD,2024-07-29 18:56:04,15.08827546,0.0001548,53.2182,128.0299,92.7421,267.3749,0.00012794,1.748e-05,0.0,0 STARLINK-3566,1 51880U 22022AE  24211.78894481  .00001748  00000-0  12794-3 0  9995,2 51880  53.2182 128.0299 0001548  92.7421 267.3749 15.08827546134360,6917.918,95.438,540.854,538.713,0.0
51880.0,STARLINK-3566,PAYLOAD,2024-07-29 22:06:51,15.08828227,0.000151,53.2181,127.4374,86.1014,274.0151,0.00014948,2.091e-05,0.0,0 STARLINK-3566,1 51880U 22022AE  24211.92142453  .00002091  00000-0  14948-3 0  9991,2 51880  53.2181 127.4374 0001510  86.1014 274.0151 15.08828227134381,6917.916,95.438,540.826,538.737,0.0
51880.0,STARLINK-3566,PAYLOAD,2024-07-30 10:49:55,15.0883864,0.0001443,53.2182,125.0549,86.9197,273.1961,0.0001332,1.832e-05,0.0,0 STARLINK-3566,1 51880U 22022AE  24212.45134034  .00001832  00000-0  13320-3 0  9991,2 51880  53.2182 125.0549 0001443  86.9197 273.1961 15.08838640134463,6917.885,95.438,540.748,538.751,0.0
51880.0,STARLINK-3566,PAYLOAD,2024-07-30 21:57:37,15.08845328,0.000131,53.2182,122.977,91.4994,268.6148,0.00011558,1.552e-05,0.0,0 STARLINK-3566,1 51880U 22022AE  24212.91501725  .00001552  00000-0  11558-3 0  9997,2 51880  53.2182 122.9770 0001310  91.4994 268.6148 15.08845328134539,6917.864,95.437,540.635,538.823,0.0
51880.0,STARLINK-3566,PAYLOAD,2024-07-31 10:40:42,15.08842393,0.0001412,53.2171,120.5942,88.2675,271.8478,2.2912e-05,7.7e-07,0.0,0 STARLINK-3566,1 51880U 22022AE  24213.44494024  .00000077  00000-0  22912-4 0  9997,2 51880  53.2171 120.5942 0001412  88.2675 271.8478 15.08842393134615,6917.873,95.437,540.715,538.761,0.0
51880.0,STARLINK-3566,PAYLOAD,2024-07-31 21:48:25,15.08832257,0.0001561,53.2182,118.5184,112.9733,247.1424,8.4334e-06,-1.54e-06,0.0,0 STARLINK-3566,1 51880U 22022AE  24213.90862961 -.00000154  00000-0  84334-5 0  9991,2 51880  53.2182 118.5184 0001561 112.9733 247.1424 15.08832257134689,6917.904,95.438,540.849,538.689,0.0
51880.0,STARLINK-3566,PAYLOAD,2024-08-01 10:31:29,15.08845443,0.0001388,53.2187,116.1386,106.6228,253.4917,9.7357e-05,1.262e-05,0.0,0 STARLINK-3566,1 51880U 22022AE  24214.43853920  .00001262  00000-0  97357-4 0  9993,2 51880  53.2187 116.1386 0001388 106.6228 253.4917 15.08845443134765,6917.864,95.437,540.689,538.769,0.0
51880.0,STARLINK-3566,PAYLOAD,2024-08-01 21:39:11,15.08849807,0.0001473,53.2189,114.0574,107.385,252.7304,9.5771e-05,1.237e-05,0.0,0 STARLINK-3566,1 51880U 22022AE  24214.90221547  .00001237  00000-0  95771-4 0  9999,2 51880  53.2189 114.0574 0001473 107.3850 252.7304 15.08849807134835,6917.85,95.437,540.734,538.696,0.0
51880.0,STARLINK-3566,PAYLOAD,2024-08-02 00:49:57,15.08856174,0.0001283,53.2171,113.4581,100.5259,259.5878,8.5175e-05,1.068e-05,0.0,0 STARLINK-3566,1 51880U 22022AE  24215.03469061  .00001068  00000-0  85175-4 0  9998,2 51880  53.2171 113.4581 0001283 100.5259 259.5878 15.08856174134852,6917.831,95.437,540.584,538.808,0.0
